NORAD_CAT_ID,OBJECT_NAME,OBJECT_TYPE,EPOCH,MEAN_MOTION,ECCENTRICITY,INCLINATION,RA_OF_ASC_NODE,ARG_OF_PERICENTER,MEAN_ANOMALY,BSTAR,MEAN_MOTION_DOT,MEAN_MOTION_DDOT,TLE_LINE0,TLE_LINE1,TLE_LINE2,SEMIMAJOR_AXIS,PERIOD,APOGEE,PERIGEE,DECAYED
50187.0,STARLINK-3272,PAYLOAD,2021-12-23 14:00:01,15.98817291,0.0068283999999999,53.2176,341.8952,171.3265,284.684,-0.0013853,-0.00890711,0.00026617,0 STARLINK-3272,1 50187U 21125AH  21357.58334491 -.00890711  26617-3 -13853-2 0  9992,2 50187  53.2176 341.8952 0068284 171.3265 284.6840 15.98817291   993,6655.8359999999975,90.06700000000002,323.15,232.252,0.0
50187.0,STARLINK-3272,PAYLOAD,2021-12-24 06:00:00,15.97656839,0.0060638,53.2173,338.4731,174.4848,159.5347,-0.0016215,-0.00916932,0.00027704,0 STARLINK-3272,1 50187U 21125AH  21358.25001157 -.00916932  27704-3 -16215-2 0  9994,2 50187  53.2173 338.4731 0060638 174.4848 159.5347 15.97656839  1107,6659.059,90.132,321.303,240.544,0.0
50187.0,STARLINK-3272,PAYLOAD,2021-12-24 14:00:01,15.97061784,0.0057773999999999,53.2174,336.7630000000001,175.7625,276.2106,-0.0016733,-0.0089605,0.00026412,0 STARLINK-3272,1 50187U 21125AH  21358.58334491 -.00896050  26412-3 -16733-2 0  9998,2 50187  53.2174 336.7630 0057774 175.7625 276.2106 15.97061784  1425,6660.7130000000025,90.166,321.059,244.096,0.0
50187.0,STARLINK-3272,PAYLOAD,2021-12-24 22:00:00,15.9645905,0.0054498,53.2177,335.0537,177.1624,32.0638,-0.0017,-0.0086127,0.00024441,0 STARLINK-3272,1 50187U 21125AH  21358.91667824 -.00861270  24441-3 -17000-2 0  9998,2 50187  53.2177 335.0537 0054498 177.1624  32.0638 15.96459050  1212,6662.389,90.2,320.563,247.945,0.0
50187.0,STARLINK-3272,PAYLOAD,2021-12-25 06:00:00,15.95898471,0.0050902,53.2176,333.3497,179.0813,146.6771,-0.001906,-0.00915243,0.00027113,0 STARLINK-3272,1 50187U 21125AH  21359.25001157 -.00915243  27113-3 -19060-2 0  9994,2 50187  53.2176 333.3497 0050902 179.0813 146.6771 15.95898471  1262,6663.949000000001,90.231,319.735,251.893,0.0
50187.0,STARLINK-3272,PAYLOAD,2021-12-25 14:00:01,15.95309074,0.0048277,53.2173,331.6439,181.1373,260.4608,-0.0019798,-0.00906574,0.00026492,0 STARLINK-3272,1 50187U 21125AH  21359.58334491 -.00906574  26492-3 -19798-2 0  9994,2 50187  53.2173 331.6439 0048277 181.1373 260.4608 15.95309074  1319,6665.59,90.265,319.635,255.276,0.0
50187.0,STARLINK-3272,PAYLOAD,2021-12-25 22:00:00,15.94703578,0.0045401,53.2175,329.9392,181.8765,14.863,-0.0019814,-0.00864925,0.0002419,0 STARLINK-3272,1 50187U 21125AH  21359.91667824 -.00864925  24190-3 -19814-2 0  9995,2 50187  53.2175 329.9392 0045401 181.8765  14.8630 15.94703578  1375,6667.276999999999,90.299,319.413,258.872,0.0
50187.0,STARLINK-3272,PAYLOAD,2021-12-26 06:00:02,15.94138173,0.0041791,53.2176,328.2394,184.3859,126.8422,-0.0021871,-0.00909857,0.00026352,0 STARLINK-3272,1 50187U 21125AH  21360.25002315 -.00909857  26352-3 -21871-2 0  9994,2 50187  53.2176 328.2394 0041791 184.3859 126.8422 15.94138173  1422,6668.854,90.331,318.589,262.849,0.0
50187.0,STARLINK-3272,PAYLOAD,2021-12-26 14:00:01,15.93555777,0.0039551,53.2175,326.5377,186.6604,238.2265,-0.0022945,-0.00915884,0.00026513,0 STARLINK-3272,1 50187U 21125AH  21360.58334491 -.00915884  26513-3 -22945-2 0  9992,2 50187  53.2175 326.5377 0039551 186.6604 238.2265 15.93555777  1477,6670.479,90.364,318.726,265.961,0.0
50187.0,STARLINK-3272,PAYLOAD,2021-12-26 22:00:00,15.92947842,0.003645,53.2176,324.8378,188.189,349.7277,-0.0022755,-0.00868952,0.00023969,0 STARLINK-3272,1 50187U 21125AH  21360.91667824 -.00868952  23969-3 -22755-2 0  9992,2 50187  53.2176 324.8378 0036450 188.1890 349.7277 15.92947842  1534,6672.176,90.398,318.361,269.721,0.0
50187.0,STARLINK-3272,PAYLOAD,2021-12-27 06:00:00,15.92376449,0.0033301,53.2174,323.1425,190.915,99.3137,-0.0024614,-0.00901473,0.00025466,0 STARLINK-3272,1 50187U 21125AH  21361.25001157 -.00901473  25466-3 -24614-2 0  9997,2 50187  53.2174 323.1425 0033301 190.9150  99.3137 15.92376449  1586,6673.772,90.431,317.861,273.41200000000003,0.0
50187.0,STARLINK-3272,PAYLOAD,2021-12-27 14:00:01,15.91801365,0.0031085,53.2175,321.4451,193.5767,208.2627,-0.0026167,-0.00922917,0.00026421,0 STARLINK-3272,1 50187U 21125AH  21361.58334491 -.00922917  26421-3 -26167-2 0  9996,2 50187  53.2175 321.4451 0031085 193.5767 208.2627 15.91801365  1637,6675.379,90.464,317.994,276.494,0.0
50187.0,STARLINK-3272,PAYLOAD,2021-12-27 22:00:00,15.91194797,0.0028152,53.2178,319.7495,195.89,316.8664,-0.0025927,-0.00878851,0.00024047,0 STARLINK-3272,1 50187U 21125AH  21361.91667824 -.00878851  24047-3 -25927-2 0  9994,2 50187  53.2178 319.7495 0028152 195.8900 316.8664 15.91194797  1689,6677.075,90.498,317.738,280.143,0.0
50187.0,STARLINK-3272,PAYLOAD,2021-12-28 06:00:00,15.90613554,0.002531,53.2177,318.0586,199.2905,63.6691,-0.0027269,-0.00890331,0.00024479,0 STARLINK-3272,1 50187U 21125AH  21362.25001157 -.00890331  24479-3 -27269-2 0  9990,2 50187  53.2177 318.0586 0025310 199.2905  63.6691 15.90613554  1747,6678.7019999999975,90.531,317.471,283.663,0.0
50187.0,STARLINK-3272,PAYLOAD,2021-12-28 14:00:01,15.90044769,0.0023306,53.2174,316.3654,202.6119,169.8442,-0.0029325,-0.00925279,0.00026098,0 STARLINK-3272,1 50187U 21125AH  21362.58334491 -.00925279  26098-3 -29325-2 0  9990,2 50187  53.2174 316.3654 0023306 202.6119 169.8442 15.90044769  1794,6680.294,90.563,317.7290000000001,286.59,0.0
50187.0,STARLINK-3272,PAYLOAD,2021-12-28 22:00:00,15.89444029,0.0020347,53.2175,314.6744,206.1774,275.0816,-0.0029371,-0.00893725,0.00024374,0 STARLINK-3272,1 50187U 21125AH  21362.91667824 -.00893725  24374-3 -29371-2 0  9992,2 50187  53.2175 314.6744 0020347 206.1774 275.0816 15.89444029  1846,6681.978,90.598,317.438,290.247,0.0
50187.0,STARLINK-3272,PAYLOAD,2021-12-29 06:00:02,15.88851322,0.0017607,53.2177,312.9876,211.7363,17.6838,-0.0029958,-0.00880627,0.00023602,0 STARLINK-3272,1 50187U 21125AH  21363.25002315 -.00880627  23602-3 -29958-2 0  9999,2 50187  53.2177 312.9876 0017607 211.7363  17.6838 15.88851322  1904,6683.639,90.632,317.272,293.736,0.0
50187.0,STARLINK-3272,PAYLOAD,2021-12-29 14:00:01,15.88284115,0.0015888,53.2176,311.2986,217.8365,118.9674,-0.0032268,-0.00919183,0.00025364,0 STARLINK-3272,1 50187U 21125AH  21363.58335648 -.00919183  25364-3 -32268-2 0  9998,2 50187  53.2176 311.2986 0015888 217.8365 118.9674 15.88284115  1953,6685.23,90.664,317.717,296.474,0.0
50187.0,STARLINK-3272,PAYLOAD,2021-12-29 21:38:59,15.8804006,0.0016856999999999,53.2212,309.6881,219.7927,140.1864,-0.0015045,-0.00426767,6.6482e-05,0 STARLINK-3272,1 50187U 21125AH  21363.90207246 -.00426767  66482-4 -15045-2 0  9998,2 50187  53.2212 309.6881 0016857 219.7927 140.1864 15.88040060  5097,6685.915,90.678,319.051,296.51,0.0
50187.0,STARLINK-3272,PAYLOAD,2021-12-29 22:00:00,15.87695649,0.001352,53.2176,309.6124,225.5746,217.8495,-0.0033105,-0.00913038,0.00024922,0 STARLINK-3272,1 50187U 21125AH  21363.91667824 -.00913038  24922-3 -33105-2 0  9992,2 50187  53.2176 309.6124 0013520 225.5746 217.8495 15.87695649  2002,6686.882,90.697,317.788,299.707,0.0
50187.0,STARLINK-3272,PAYLOAD,2021-12-30 06:00:00,15.87008452,0.0011637,53.2182,307.9302,235.8242,313.6265,-0.0027787,-0.00686825,0.0,0 STARLINK-3272,1 50187U 21125AH  21364.25001157 -.00686825  00000-0 -27787-2 0  9999,2 50187  53.2182 307.9302 0011637 235.8242 313.6265 15.87008452  2066,6688.812,90.737,318.461,302.894,0.0
50187.0,STARLINK-3272,PAYLOAD,2021-12-30 14:00:01,15.86395479,0.0009898,53.2183,306.2456,249.867,44.8803,-0.0027429,-0.00658423,0.0,0 STARLINK-3272,1 50187U 21125AH  21364.58334491 -.00658423  00000-0 -27429-2 0  9991,2 50187  53.2183 306.2456 0009898 249.8670  44.8803 15.86395479  2388,6690.535,90.772,319.023,305.778,0.0
50187.0,STARLINK-3272,PAYLOAD,2021-12-30 22:00:01,15.85942622,0.0008867,53.2178,304.5634,261.2263,138.0941,-0.0036636,-0.00841758,0.0,0 STARLINK-3272,1 50187U 21125AH  21364.91668981 -.00841758  00000-0 -36636-2 0  9997,2 50187  53.2178 304.5634 0008867 261.2263 138.0941 15.85942622  2164,6691.809,90.798,319.607,307.74,0.0
50187.0,STARLINK-3272,PAYLOAD,2021-12-31 14:00:01,15.84755179,0.0004325,53.2175,301.2045,268.5168,337.7772,-0.0037513,-0.00812857,0.0,0 STARLINK-3272,1 50187U 21125AH  21365.58334491 -.00812857  00000-0 -37513-2 0  9990,2 50187  53.2175 301.2045 0004325 268.5168 337.7772 15.84755179  2540,6695.151,90.866,319.9120000000001,314.121,0.0
50187.0,STARLINK-3272,PAYLOAD,2021-12-31 20:31:44,15.8530258,0.00086,53.2222,299.8372,270.1535,89.8505,-8.237299999999999e-05,-0.0002082,0.0,0 STARLINK-3272,1 50187U 21125AH  21365.85538062 -.00020820  00000-0 -82373-4 0  9997,2 50187  53.2222 299.8372 0008600 270.1535  89.8505 15.85302580  5407,6693.61,90.834,321.231,309.718,0.0
50187.0,STARLINK-3272,PAYLOAD,2021-12-31 22:00:00,15.8417188,0.0001681,53.2175,299.5274,260.0476,88.7066,-0.0038836,-0.00816595,0.0,0 STARLINK-3272,1 50187U 21125AH  21365.91667824 -.00816595  00000-0 -38836-2 0  9998,2 50187  53.2175 299.5274 0001681 260.0476  88.7066 15.84171880  2320,6696.795,90.899,319.785,317.534,0.0
50187.0,STARLINK-3272,PAYLOAD,2022-01-01 05:37:12,15.83984401,0.0002437,53.2223,297.9361,285.9186,74.1571,-0.001085,-0.00241833,0.0,0 STARLINK-3272,1 50187U 21125AH  22001.23417800 -.00241833  00000-0 -10850-2 0  9991,2 50187  53.2223 297.9361 0002437 285.9186  74.1571 15.83984401  2372,6697.323,90.91,320.82,317.556,0.0
50187.0,STARLINK-3272,PAYLOAD,2022-01-01 12:00:00,15.83152021,9.05e-05,53.2175,296.596,111.1413,325.224,-0.0041289,-0.0082567,0.0,0 STARLINK-3272,1 50187U 21125AH  22001.50001157 -.00825670  00000-0 -41289-2 0  9992,2 50187  53.2175 296.5960 0000905 111.1413 325.2240 15.83152021  2412,6699.67,90.958,322.142,320.9290000000001,0.0
50187.0,STARLINK-3272,PAYLOAD,2022-01-01 14:00:01,15.83004752,0.0001094,53.2177,296.177,104.8437,86.7851,-0.0041497,-0.00824236,0.0,0 STARLINK-3272,1 50187U 21125AH  22001.58335648 -.00824236  00000-0 -41497-2 0  9993,2 50187  53.2177 296.1770 0001094 104.8437  86.7851 15.83004752  2711,6700.0859999999975,90.966,322.684,321.218,0.0
